HIERARCHY
ROOT mixamorig:Hips
{
	OFFSET 0.00 0.00 0.00
	CHANNELS 6 Xposition Yposition Zposition Zrotation Yrotation Xrotation
	JOINT mixamorig:Spine
	{
		OFFSET	0.0000	18.1814	-1.2657
		CHANNELS 3 Zrotation Yrotation Xrotation
		JOINT mixamorig:Spine1
		{
			OFFSET	0.0000	21.2116	-1.4766
			CHANNELS 3 Zrotation Yrotation Xrotation
			JOINT mixamorig:Spine2
			{
				OFFSET	0.0000	24.2418	-1.6876
				CHANNELS 3 Zrotation Yrotation Xrotation
				JOINT mixamorig:Neck
				{
					OFFSET	0.0000	27.2721	-1.8985
					CHANNELS 3 Zrotation Yrotation Xrotation
					JOINT mixamorig:Head
					{
						OFFSET	0.0000	19.2675	11.0567
						CHANNELS 3 Zrotation Yrotation Xrotation
						End Site
						{
							OFFSET 0.0000 24.3175 13.9547
						}
					}
				}
				JOINT mixamorig:LeftShoulder
				{
					OFFSET	11.1378	22.4970	-1.8453
					CHANNELS 3 Zrotation Yrotation Xrotation
					JOINT mixamorig:LeftArm
					{
						OFFSET	22.5443	-9.5607	0.1064
						CHANNELS 3 Zrotation Yrotation Xrotation
						JOINT mixamorig:LeftForeArm
						{
							OFFSET	36.6820	-29.7524	1.0803
							CHANNELS 3 Zrotation Yrotation Xrotation
							JOINT mixamorig:LeftHand
							{
								OFFSET	31.5369	-19.9944	12.1524
								CHANNELS 3 Zrotation Yrotation Xrotation
								JOINT mixamorig:LeftHandThumb1
								{
									OFFSET	4.9599	-0.9231	6.1931
									CHANNELS 3 Zrotation Yrotation Xrotation
									JOINT mixamorig:LeftHandThumb2
									{
										OFFSET	3.9680	-0.7385	4.9545
										CHANNELS 3 Zrotation Yrotation Xrotation
										JOINT mixamorig:LeftHandThumb3
										{
											OFFSET	2.6659	-0.6866	5.6569
											CHANNELS 3 Zrotation Yrotation Xrotation
											End Site
											{
												OFFSET 1.5547 -1.3984 5.5730
											}
										}
									}
								}
								JOINT mixamorig:LeftHandIndex1
								{
									OFFSET	18.1775	-8.9471	9.0866
									CHANNELS 3 Zrotation Yrotation Xrotation
									JOINT mixamorig:LeftHandIndex2
									{
										OFFSET	3.6487	-3.5375	2.7198
										CHANNELS 3 Zrotation Yrotation Xrotation
										JOINT mixamorig:LeftHandIndex3
										{
											OFFSET	3.2693	-3.0618	3.2608
											CHANNELS 3 Zrotation Yrotation Xrotation
											End Site
											{
												OFFSET 2.9406 -2.7563 3.0161
											}
										}
									}
								}
								JOINT mixamorig:LeftHandMiddle1
								{
									OFFSET	15.4929	-12.1332	8.4794
									CHANNELS 3 Zrotation Yrotation Xrotation
									JOINT mixamorig:LeftHandMiddle2
									{
										OFFSET	3.0430	-4.5934	2.5842
										CHANNELS 3 Zrotation Yrotation Xrotation
										JOINT mixamorig:LeftHandMiddle3
										{
											OFFSET	2.0309	-3.0389	4.3641
											CHANNELS 3 Zrotation Yrotation Xrotation
											End Site
											{
												OFFSET 1.4686 -2.1845 4.3427
											}
										}
									}
								}
								JOINT mixamorig:LeftHandRing1
								{
									OFFSET	10.9642	-15.9150	7.2800
									CHANNELS 3 Zrotation Yrotation Xrotation
									JOINT mixamorig:LeftHandRing2
									{
										OFFSET	2.1003	-3.8406	2.8862
										CHANNELS 3 Zrotation Yrotation Xrotation
										JOINT mixamorig:LeftHandRing3
										{
											OFFSET	1.2313	-2.4652	3.8370
											CHANNELS 3 Zrotation Yrotation Xrotation
											End Site
											{
												OFFSET 0.5948 -1.4067 4.1995
											}
										}
									}
								}
								JOINT mixamorig:LeftHandPinky1
								{
									OFFSET	5.7467	-17.6622	7.3864
									CHANNELS 3 Zrotation Yrotation Xrotation
									JOINT mixamorig:LeftHandPinky2
									{
										OFFSET	1.5275	-2.5984	2.2715
										CHANNELS 3 Zrotation Yrotation Xrotation
										JOINT mixamorig:LeftHandPinky3
										{
											OFFSET	0.5729	-0.9842	2.8271
											CHANNELS 3 Zrotation Yrotation Xrotation
											End Site
											{
												OFFSET 0.5189 -0.8111 2.1957
											}
										}
									}
								}
							}
						}
					}
				}
				JOINT mixamorig:RightShoulder
				{
					OFFSET	-11.1378	22.4970	-1.9517
					CHANNELS 3 Zrotation Yrotation Xrotation
					JOINT mixamorig:RightArm
					{
						OFFSET	-22.5443	-9.5607	-0.1064
						CHANNELS 3 Zrotation Yrotation Xrotation
						JOINT mixamorig:RightForeArm
						{
							OFFSET	-36.6819	-29.7524	1.4161
							CHANNELS 3 Zrotation Yrotation Xrotation
							JOINT mixamorig:RightHand
							{
								OFFSET	-31.5368	-19.9944	11.8595
								CHANNELS 3 Zrotation Yrotation Xrotation
								JOINT mixamorig:RightHandThumb1
								{
									OFFSET	-5.4858	-0.8573	6.4585
									CHANNELS 3 Zrotation Yrotation Xrotation
									JOINT mixamorig:RightHandThumb2
									{
										OFFSET	-4.3886	-0.6858	5.1667
										CHANNELS 3 Zrotation Yrotation Xrotation
										JOINT mixamorig:RightHandThumb3
										{
											OFFSET	-2.5483	-0.8355	5.5939
											CHANNELS 3 Zrotation Yrotation Xrotation
											End Site
											{
												OFFSET -1.9965 -1.6626 4.6620
											}
										}
									}
								}
								JOINT mixamorig:RightHandIndex1
								{
									OFFSET	-18.7763	-8.7751	9.4831
									CHANNELS 3 Zrotation Yrotation Xrotation
									JOINT mixamorig:RightHandIndex2
									{
										OFFSET	-3.8956	-3.7655	2.7666
										CHANNELS 3 Zrotation Yrotation Xrotation
										JOINT mixamorig:RightHandIndex3
										{
											OFFSET	-3.3474	-3.0775	3.2109
											CHANNELS 3 Zrotation Yrotation Xrotation
											End Site
											{
												OFFSET -2.7188 -2.2708 3.6376
											}
										}
									}
								}
								JOINT mixamorig:RightHandMiddle1
								{
									OFFSET	-16.7859	-12.8065	8.6103
									CHANNELS 3 Zrotation Yrotation Xrotation
									JOINT mixamorig:RightHandMiddle2
									{
										OFFSET	-2.6877	-4.2765	3.1425
										CHANNELS 3 Zrotation Yrotation Xrotation
										JOINT mixamorig:RightHandMiddle3
										{
											OFFSET	-1.7777	-2.8711	4.2706
											CHANNELS 3 Zrotation Yrotation Xrotation
											End Site
											{
												OFFSET -1.2846 -2.0944 4.2752
											}
										}
									}
								}
								JOINT mixamorig:RightHandRing1
								{
									OFFSET	-11.3444	-15.2451	7.6371
									CHANNELS 3 Zrotation Yrotation Xrotation
									JOINT mixamorig:RightHandRing2
									{
										OFFSET	-2.2150	-4.2759	2.4721
										CHANNELS 3 Zrotation Yrotation Xrotation
										JOINT mixamorig:RightHandRing3
										{
											OFFSET	-1.2674	-2.7806	3.9516
											CHANNELS 3 Zrotation Yrotation Xrotation
											End Site
											{
												OFFSET -0.4188 -1.3418 4.3716
											}
										}
									}
								}
								JOINT mixamorig:RightHandPinky1
								{
									OFFSET	-6.2920	-16.6807	7.4774
									CHANNELS 3 Zrotation Yrotation Xrotation
									JOINT mixamorig:RightHandPinky2
									{
										OFFSET	-1.6010	-3.2202	2.1243
										CHANNELS 3 Zrotation Yrotation Xrotation
										JOINT mixamorig:RightHandPinky3
										{
											OFFSET	-0.5887	-1.2939	3.0352
											CHANNELS 3 Zrotation Yrotation Xrotation
											End Site
											{
												OFFSET -0.1025 -0.3920 3.0221
											}
										}
									}
								}
							}
						}
					}
				}
			}
		}
	}
	JOINT mixamorig:LeftUpLeg
	{
		OFFSET	19.3175	-10.1118	0.1558
		CHANNELS 3 Zrotation Yrotation Xrotation
		JOINT mixamorig:LeftLeg
		{
			OFFSET	10.1505	-80.5711	-4.9869
			CHANNELS 3 Zrotation Yrotation Xrotation
			JOINT mixamorig:LeftFoot
			{
				OFFSET	12.8208	-69.2194	-9.7860
				CHANNELS 3 Zrotation Yrotation Xrotation
				JOINT mixamorig:LeftToeBase
				{
					OFFSET	10.0534	-21.1412	23.1616
					CHANNELS 3 Zrotation Yrotation Xrotation
					End Site
					{
						OFFSET 3.9852 -0.2580 11.6899
					}
				}
			}
		}
	}
	JOINT mixamorig:RightUpLeg
	{
		OFFSET	-19.3175	-10.1118	0.1978
		CHANNELS 3 Zrotation Yrotation Xrotation
		JOINT mixamorig:RightLeg
		{
			OFFSET	-10.1506	-80.5711	-4.2453
			CHANNELS 3 Zrotation Yrotation Xrotation
			JOINT mixamorig:RightFoot
			{
				OFFSET	-12.8204	-69.2174	-10.6194
				CHANNELS 3 Zrotation Yrotation Xrotation
				JOINT mixamorig:RightToeBase
				{
					OFFSET	-10.0541	-21.1451	23.8957
					CHANNELS 3 Zrotation Yrotation Xrotation
					End Site
					{
						OFFSET -3.9855 -0.2599 11.9614
					}
				}
			}
		}
	}
}
MOTION
Frames: 26
Frame Time: 0.0333333
-1.2450 105.1347 -5.1550 -6.1403 -1.0781 87.6344 -1.3017 -1.6563 5.8546 2.7067 3.1062 10.3132 1.7353 3.0163 10.5445 -2.3539 -7.8766 -22.5598 -2.8566 19.2734 -34.9522 12.9075 -18.5768 -1.8411 41.9220 34.1555 -61.3678 -5.0901 -10.3982 -55.3644 87.4254 -31.3873 49.8223 5.6664 16.1372 4.3267 10.1373 12.3369 7.7016 66.5909 6.3624 3.3677 3.3274 6.5915 0.0352 -1.5911 5.2000 6.0894 -0.5088 -0.3720 -0.2757 10.9946 9.1827 7.3313 -1.3341 8.0419 13.9210 -2.0443 -3.5104 -0.9334 9.3183 12.8073 16.9200 0.9221 7.6515 11.5155 -1.4717 0.2092 5.4312 -1.5026 3.1081 15.2141 -1.5093 7.3657 17.8389 -0.3587 -1.4211 -0.8609 -25.5025 23.3734 -5.9891 -14.2658 2.0602 -49.2825 -10.0122 16.5247 -11.9271 -118.8858 21.3598 42.9175 -3.4046 -7.1021 -3.2778 1.0528 -22.2358 10.3427 -8.0542 -5.7543 -15.4081 -1.2309 -0.1697 -11.7747 -5.5772 44.1555 -37.9850 -66.4510 70.4473 -105.2819 -14.3380 -14.5827 9.8691 7.3119 11.2964 -7.4590 0.8408 32.6941 -31.6548 -18.7383 -14.1618 9.4866 0.3233 43.0842 -52.3232 -7.1209 44.1573 -53.2505 -18.2597 -15.0597 9.6993 8.0375 12.3107 -2.6405 -70.9608 44.1424 -141.7391 -5.0356 27.7779 -84.6990 26.1187 18.8056 89.0536 -23.4826 -8.3166 -34.4638 0.0000 -0.0000 -35.2428 -4.3775 -32.2108 -81.6458 2.2279 -12.3684 75.3079 11.7230 -0.9945 -1.1726 8.7214 2.1399 9.7722 
2.1804 103.2162 4.6161 -11.4050 -1.0174 88.0514 -0.0311 0.3034 5.7422 4.3573 5.3394 10.1581 3.5008 5.1739 10.5585 -5.0433 -5.1546 -21.9304 -2.9415 18.3265 -34.8159 17.7522 -16.5149 -1.5307 46.5154 35.6837 -61.5848 -14.0258 -0.8160 -48.0242 85.3830 -33.6117 50.0162 5.6663 16.1372 4.3267 5.3293 12.0380 7.1294 40.9914 0.5019 7.6117 -0.6630 2.2331 -0.6130 -3.7240 2.5240 0.8818 0.9310 6.0893 4.8163 12.2708 13.9717 12.9817 -4.0428 10.1445 12.0869 -0.5731 3.1992 5.5860 9.7884 11.3932 18.8977 -3.1848 -2.8358 -0.6352 -0.9973 1.9926 7.2866 -0.6588 5.4992 19.9709 0.0258 9.9731 20.7373 -0.9674 -5.9160 -4.9275 -22.5382 33.3036 -6.5730 -14.4159 -5.4743 -38.0435 -17.6537 15.2713 -15.8324 -119.1194 19.5153 39.8445 -2.7890 -9.0985 -2.6154 -0.2890 -21.2780 9.8533 -11.0801 -0.1440 -16.2142 -1.4257 6.4672 -17.4389 -17.4298 53.7969 -56.5644 -72.8409 69.7920 -112.7768 -14.0578 -13.4840 8.7254 6.4904 27.0473 -23.8172 -4.8948 41.4758 -44.9388 -17.8552 -12.2517 6.2596 0.5514 42.8901 -51.8579 -10.9070 46.7931 -60.1640 -21.6219 -18.7905 16.0506 8.8178 20.3844 -11.2740 -68.1775 46.0505 -136.8492 -3.0775 29.4385 -78.2583 32.7212 20.3180 86.5126 -26.5607 -8.1081 -31.1149 -1.7790 -1.6457 -37.2484 -1.6101 -31.0904 -85.0980 5.8171 -11.9423 74.9242 12.9427 0.0739 -6.3228 7.7290 2.1578 3.6051 
5.2922 100.6293 15.1133 -15.8891 -0.9819 88.2568 1.4251 2.0068 5.6232 5.6731 6.2699 10.1966 4.9945 6.0579 10.6548 -7.7961 -2.2936 -21.2725 -2.9689 17.3353 -34.6536 22.6895 -14.5554 -1.2351 47.4579 35.5677 -56.7930 -15.1162 2.0932 -46.4946 79.5281 -37.1521 63.2012 5.6663 16.1372 4.3267 1.0003 11.3499 7.3271 20.7426 -0.9123 14.5943 -3.6391 -1.5588 -0.8235 -4.8100 2.7966 -2.0217 2.8979 11.6375 9.7076 13.4384 18.6799 17.7361 -6.9278 11.9224 9.9877 1.3093 8.7654 11.3674 9.8715 9.8326 19.7224 -5.1577 -13.0167 -11.6542 -2.9263 -5.4458 -0.3360 0.0091 6.9753 23.2036 1.3349 11.9625 23.0850 -1.2296 -9.7304 -8.3352 -12.3864 40.7366 -3.9127 -27.3244 -11.4111 -27.8414 -12.5320 18.5851 -13.9735 -121.9515 18.6000 40.8835 -2.2009 -11.0749 -1.9793 -1.6634 -20.0806 9.2885 -14.3167 6.1565 -17.9386 -1.7685 11.0256 -21.1950 -38.9263 60.0291 -84.9314 -80.3791 68.5531 -121.6651 -14.1343 -13.2351 9.0196 -0.7533 42.5795 -45.2001 -15.0469 49.2605 -62.7283 -17.6499 -11.6109 5.3110 0.5322 42.9975 -51.9726 -15.8551 49.3256 -68.5478 -26.0862 -22.4281 23.4302 8.1588 29.0591 -21.0364 -65.5563 47.5654 -132.4442 -1.7847 30.7840 -71.8732 39.8014 22.9742 84.0062 -29.0652 -7.0609 -26.3244 -4.4410 -4.6415 -40.4184 0.6387 -31.1391 -95.1237 9.0829 -14.2865 81.2602 12.7619 1.4543 -12.6447 6.2375 1.6711 -7.2103 
7.5088 98.1984 26.2576 -19.2420 -1.0690 88.2622 2.9923 3.4277 5.5712 6.3935 6.1110 10.4896 5.8887 5.9022 10.8884 -10.1269 0.3330 -20.8074 -3.1320 16.2008 -34.4508 22.2511 -15.9839 1.4943 53.2316 36.2731 -47.9172 -10.4228 0.6378 -44.2261 67.2658 -36.2815 87.2542 5.6663 16.1372 4.3267 -1.5767 10.2938 7.1596 8.7615 -0.2423 19.8468 -4.8595 -4.4112 -0.9963 -4.5201 6.4594 -2.0151 5.1136 15.5326 13.9416 13.8302 21.9305 20.0208 -10.3330 11.0260 6.1420 3.1531 12.8629 16.0112 9.5414 8.1905 18.4600 -5.5852 -22.4683 -21.5754 -3.0200 -25.7131 -20.8893 0.5175 6.9270 23.2293 1.8914 12.7514 24.0548 -1.2775 -11.9061 -10.2694 -9.0723 42.6041 -2.2097 -37.7385 -8.2478 -17.8337 -7.4511 21.6138 -15.0859 -112.8212 23.2080 38.3972 -1.6312 -13.0541 -1.3610 -3.0660 -18.7947 8.6539 -17.7015 12.5896 -20.6318 -0.8546 10.0830 -19.6172 -59.4163 60.1597 -110.6607 -81.8058 68.3742 -123.5634 -15.2607 -15.5500 13.0521 -13.8835 52.3144 -68.4839 -26.2427 53.3117 -79.6087 -19.4000 -14.8496 10.4962 1.3795 41.9721 -49.9999 -19.4078 50.6249 -74.2463 -28.6293 -24.6001 28.8039 6.4126 35.5413 -29.1984 -60.7652 49.5756 -124.8764 -1.3358 31.6219 -64.9242 44.7137 27.6423 79.5238 -30.0465 -5.4675 -21.3397 -6.5212 -7.3973 -43.0206 3.1995 -31.1779 -106.8759 11.0701 -17.6811 88.1308 11.6848 2.3587 -17.2488 5.0420 0.6421 -17.8642 
8.7994 96.4125 37.8011 -21.5178 -1.3386 88.1548 4.5540 4.5811 5.5887 6.5368 5.2837 10.9649 6.1778 5.1211 11.2196 -11.5619 2.3145 -20.7400 -3.6592 14.8718 -34.2004 15.4824 -21.0137 6.7451 64.1595 37.1458 -34.9082 -1.4661 -3.5609 -44.0715 54.7179 -28.5647 109.9397 4.4487 16.7576 3.9630 -2.5136 8.1536 6.3145 3.9934 -0.2961 23.1210 -3.6939 -7.0329 -1.7168 -4.1798 7.6504 -1.9781 7.1445 17.7700 17.2162 13.2381 20.2309 17.9198 -14.2140 1.5320 -3.2164 5.3074 16.6246 20.7814 9.0836 6.7368 14.6443 -4.2191 -32.8786 -31.8703 9.6441 -46.9312 -52.5228 1.3421 5.5142 18.6215 1.2370 11.8114 22.9112 -1.3031 -11.5218 -9.8983 -15.7220 39.7335 -3.7233 -40.3770 -0.6117 -9.4578 -7.1039 26.0202 -22.6611 -91.5647 33.0067 34.4689 -1.1519 -14.7730 -0.8374 -4.4895 -17.6020 7.9830 -21.1770 18.5659 -24.0702 1.3173 5.9082 -13.6728 -66.0735 59.1590 -119.1725 -69.2697 70.5099 -109.5228 -16.2212 -18.5381 19.6896 -22.0768 55.1317 -80.9688 -30.8099 54.1037 -86.1250 -21.5079 -19.3904 19.3017 3.7347 38.3654 -43.7484 -18.5284 50.2151 -72.7867 -26.5103 -23.8907 28.9432 5.6250 37.5606 -31.9583 -50.5202 51.9514 -109.6148 -0.6544 31.3112 -58.4749 45.1317 32.5069 73.5332 -27.2536 -1.6397 -14.4773 -8.8197 -9.1503 -44.4912 6.3974 -30.0360 -117.8810 11.5337 -20.6776 92.6124 9.8847 2.3498 -18.3861 4.3749 -0.6546 -24.8660 
9.5396 95.3420 49.5293 -23.0672 -1.7688 88.0747 5.9811 5.5350 5.6210 6.3556 4.3649 11.4222 6.1235 4.2622 11.5143 -11.6424 3.2485 -21.2826 -4.7980 13.3538 -33.8751 5.5797 -27.5192 12.7098 72.7108 36.9448 -18.3495 11.0638 -7.5240 -54.8167 45.2547 -20.5856 119.5999 0.0322 18.9093 2.5412 -2.5502 4.2130 4.5611 2.2098 -1.7792 26.3508 0.2067 -10.7515 -3.6543 -6.1475 -3.5196 -7.1286 8.6178 18.9421 19.4775 13.3201 9.1037 10.3836 -13.0943 -23.6632 -23.3165 9.2402 21.7838 28.4092 8.9294 5.9364 8.4475 2.1923 -46.4758 -46.8178 19.0515 -52.1298 -67.7020 3.3222 3.7730 8.7023 -0.7056 8.7381 19.3612 -1.2568 -7.9538 -6.6876 -23.0916 35.0271 -5.4631 -42.1917 1.0991 -2.3273 -10.1232 37.2923 -35.3408 -70.3796 40.3499 34.8193 -0.8896 -15.7456 -0.5447 -5.9213 -16.7047 7.3355 -24.5605 23.5294 -27.7356 4.5877 5.5166 -7.5302 -53.7344 60.5246 -103.6491 -30.7222 69.4325 -66.5104 -13.2083 -18.0338 24.4548 -14.4421 52.1595 -69.8244 -23.4585 52.2173 -75.3066 -17.7783 -19.8005 22.7207 6.7808 30.6081 -32.3422 -11.8229 46.9591 -61.4689 -18.8587 -17.5677 22.0872 7.3417 33.1864 -25.9998 -31.7369 51.7111 -82.4296 1.8470 28.7148 -55.0270 40.1484 34.1242 68.1779 -15.0064 5.9511 -0.1324 -13.7349 -10.2250 -45.0710 9.9175 -26.6140 -127.5381 10.6074 -22.6874 94.6550 6.9830 1.3894 -15.6029 3.9086 -1.9849 -26.1675 
9.0504 95.0586 61.0702 -21.7489 -2.2464 88.0956 6.6469 5.8981 5.5855 5.5289 3.5900 11.4096 5.4071 3.5450 11.3784 -9.7535 2.7809 -22.7812 -6.9669 11.9660 -33.3118 -2.6466 -33.6212 17.3024 76.6353 35.6585 -11.0781 24.6076 -8.8827 -57.4705 41.8362 -14.6162 124.9036 -0.9989 19.4127 2.1606 -2.4666 3.1443 4.0685 2.0424 -2.2102 27.0222 1.4138 -11.5963 -4.2711 -6.4518 -7.2410 -8.7130 8.8490 19.0968 19.8287 13.8671 5.8407 7.9983 -10.7438 -30.1903 -30.2719 10.3551 22.9964 30.4305 8.8499 5.8352 6.7732 5.0873 -49.5296 -51.4023 19.6303 -52.3338 -68.5521 3.7200 3.4516 5.8293 -1.2444 7.7971 18.3292 -1.1942 -6.8089 -5.6669 -23.4896 29.0307 -4.5234 -42.7983 -5.4449 1.2745 -27.5938 42.4920 -57.9013 -64.7710 40.7637 34.7842 -0.8701 -15.8166 -0.5237 -7.3372 -16.4091 6.7947 -27.3149 26.7499 -30.8229 9.5357 10.7837 -1.6348 -21.3954 55.5377 -62.3093 1.8247 53.1556 -25.6669 -5.9262 -13.3608 27.6977 0.3232 37.4423 -42.9930 -7.9913 43.5346 -49.9546 -6.9062 -14.0737 19.6874 7.9684 18.3586 -17.1770 -2.3955 38.5021 -42.5764 -9.0115 -2.7441 10.7058 9.0779 20.9878 -11.8417 -10.4530 42.7815 -48.5982 0.0446 27.0403 -50.2906 31.3175 36.8959 54.0297 -7.8488 7.4332 11.5551 -16.6657 -10.2298 -41.1325 11.9425 -24.6942 -133.6087 7.5871 -23.8947 96.4375 4.6473 1.0723 -15.9372 3.3972 -3.0890 -24.5808 
7.4959 96.3366 72.5848 -17.3463 -2.6411 88.0977 6.5221 5.7333 5.4641 4.1679 2.6043 10.9652 4.1811 2.6096 10.8363 -7.8238 2.0904 -24.0177 -8.5565 9.7631 -32.6348 -9.7572 -39.0654 21.1049 77.5620 33.9064 -10.7375 36.5224 -12.3164 -56.5108 40.4341 -11.5755 127.2730 -1.2175 19.5182 2.0789 -2.4476 2.9190 3.9636 2.0064 -2.3010 27.1641 1.6703 -11.7731 -4.4039 -6.5031 -8.0279 -9.0468 8.8980 19.1293 19.9029 13.9999 5.1543 7.4925 -10.1098 -31.5324 -31.8393 10.5956 23.2473 30.8638 8.8335 5.8136 6.4197 5.7699 -50.1536 -52.4375 19.7536 -52.3762 -68.7325 3.8060 3.3863 5.2224 -1.3557 7.5972 18.1126 -1.1773 -6.5686 -5.4502 -17.7279 22.5306 -2.9667 -43.1262 -16.4027 0.2539 -41.8655 33.3706 -79.9381 -70.8228 37.5454 32.0550 -0.9745 -15.4289 -0.6396 -8.7147 -16.7268 6.3920 -29.2437 28.3934 -32.8124 15.8127 18.2077 4.3644 -1.7419 37.8816 -30.5733 10.9999 29.2088 -5.5466 1.9959 -7.3841 32.0439 5.5281 14.7477 -21.6879 1.3097 28.3446 -27.0927 5.7730 -5.4272 16.4458 5.6789 5.5418 -2.0539 3.1878 26.4563 -24.7926 -1.6186 17.4454 1.3982 6.8808 5.8054 4.3621 0.4678 26.3037 -22.2583 -2.7301 25.1297 -49.3994 24.5898 33.8683 44.6708 -5.8991 8.7968 23.7067 -20.5378 -8.3270 -26.6594 11.9939 -28.1267 -131.5202 6.4852 -24.2643 97.5588 3.8239 1.6780 -22.8965 3.4269 -3.3546 -24.7941 
5.1854 98.7247 84.6704 -11.1815 -2.9662 88.0582 5.9640 5.1988 5.2887 2.5400 1.4691 10.2977 2.7013 1.5205 10.0867 -6.4713 1.3082 -24.6785 -9.1669 5.9431 -31.9314 -15.8202 -43.8070 24.1943 75.4797 31.5180 -14.6858 42.9805 -17.9148 -54.0234 42.5772 -13.5035 126.2583 -1.2176 19.5182 2.0789 -2.4475 2.9192 3.9634 2.0064 -2.3010 27.1641 1.6703 -11.7731 -4.4039 -6.5031 -8.0279 -9.0467 8.8980 19.1293 19.9029 14.0006 5.1536 7.4929 -10.1098 -31.5324 -31.8393 10.5936 23.2462 30.8650 8.8335 5.8136 6.4197 5.7699 -50.1535 -52.4375 19.7535 -52.3762 -68.7325 3.8060 3.3863 5.2224 -1.3557 7.5972 18.1126 -1.1767 -6.5703 -5.4484 -13.3236 16.1552 -2.6411 -40.5034 -25.5105 -11.3457 -35.9082 26.4319 -88.0255 -76.8908 35.2477 21.9594 -1.1581 -14.7552 -0.8419 -9.7717 -18.2287 6.6217 -29.0939 26.9395 -31.4310 20.2354 22.7295 8.4894 2.7228 23.5885 -16.8191 11.6604 13.0843 3.6528 4.4810 -3.2466 38.2336 4.5980 3.2677 -8.2653 3.2230 16.3765 -14.0199 12.3830 -1.6640 16.2083 2.9427 -1.1586 6.5812 4.3984 17.0965 -13.6265 1.2813 29.9247 -0.9633 2.9250 -3.9650 15.7448 2.4973 12.3429 -6.6082 -4.9656 22.6265 -50.3607 20.3597 30.7332 40.5554 -4.0952 8.8992 32.4511 -8.9322 -2.5993 -8.0066 11.8720 -33.3900 -127.4979 4.3931 -23.3735 98.0671 2.1630 1.2964 -25.9672 4.3555 -2.8672 -28.6228 
2.3995 101.5459 97.2710 -4.0606 -3.2309 87.9769 5.1249 4.3625 5.0908 0.8040 0.2114 9.5455 1.1189 0.3054 9.2647 -5.7165 0.4123 -24.7814 -8.8992 0.5096 -31.3435 -20.7906 -47.7754 26.5526 71.1473 28.2335 -20.5281 41.4722 -24.1676 -49.7327 49.7345 -20.8986 120.9502 -1.2176 19.5182 2.0789 -2.4477 2.9189 3.9638 2.0064 -2.3010 27.1641 1.6703 -11.7731 -4.4039 -6.5031 -8.0279 -9.0467 8.8980 19.1293 19.9030 14.0013 5.1528 7.4933 -10.1098 -31.5323 -31.8393 10.5925 23.2448 30.8664 8.8335 5.8136 6.4197 5.7699 -50.1536 -52.4375 19.7535 -52.3762 -68.7325 3.8060 3.3863 5.2224 -1.3558 7.5971 18.1126 -1.1773 -6.5719 -5.4465 -13.0432 10.4996 -2.7070 -33.6097 -29.0927 -29.9865 -18.8945 24.1400 -85.3166 -81.0172 34.0477 9.3753 -1.4014 -13.8758 -1.1085 -10.0577 -20.6642 7.9993 -26.8499 22.0607 -26.6896 21.5748 23.5765 9.6786 3.3670 17.8701 -12.1292 11.3522 7.2753 6.6560 1.7486 -0.7907 44.4875 4.0861 2.9076 -1.4218 2.9940 10.1505 -7.7354 11.5508 -4.8546 17.8002 2.1262 -2.4858 8.5921 4.1776 11.7282 -7.6218 2.2962 31.9501 3.1108 0.5567 -7.8505 20.9221 1.7987 3.8440 2.2472 -6.3763 19.4588 -52.1884 16.1140 28.1366 39.2228 -1.6795 7.6810 37.5286 -4.4400 -1.4667 2.3294 11.5600 -39.1935 -123.4285 0.1965 -21.4988 98.3967 0.1302 0.1513 -24.7315 5.7928 -1.7623 -35.0213 
-0.6329 103.8956 109.9232 3.3922 -3.4232 87.8735 4.0767 3.2943 4.9070 -0.9346 -1.1525 8.8187 -0.4675 -1.0205 8.4805 -5.1962 -0.6494 -24.5635 -8.1185 -5.9155 -31.0310 -24.6308 -50.8727 28.1862 65.7640 24.1764 -26.0032 30.8784 -28.3257 -42.1722 64.3711 -31.7675 108.9494 -1.2176 19.5182 2.0789 -2.4479 2.9184 3.9648 2.0064 -2.3010 27.1642 1.6703 -11.7731 -4.4039 -6.5031 -8.0279 -9.0467 8.8980 19.1293 19.9029 14.0020 5.1521 7.4936 -10.1098 -31.5323 -31.8393 10.5920 23.2433 30.8677 8.8335 5.8136 6.4197 5.7699 -50.1536 -52.4376 19.7535 -52.3762 -68.7325 3.8060 3.3863 5.2224 -1.3557 7.5972 18.1126 -1.1785 -6.5733 -5.4447 -17.0697 5.9544 -1.6269 -25.9197 -26.9440 -44.1557 -5.5477 17.4069 -76.5261 -85.4946 32.5534 5.5098 -1.6961 -12.8278 -1.4303 -10.1196 -23.9386 9.5786 -23.5579 14.4455 -20.4406 21.0862 21.8301 8.9457 3.4401 16.7839 -11.2154 11.4077 7.0907 6.5339 -2.0872 0.8402 48.7291 3.8723 2.8716 1.3493 2.4168 6.5324 -4.1204 5.2729 -12.1669 20.5956 1.9935 -2.4278 8.6631 3.6376 8.0908 -3.6034 3.1403 28.0537 10.1354 -0.3425 -8.9872 22.6422 0.6190 -1.4073 7.7680 -7.1698 15.7952 -54.6801 12.5740 25.8762 40.4342 0.3308 6.2427 40.4812 -3.5677 -0.6002 7.8689 9.9252 -44.9139 -118.4228 -4.9229 -19.4221 97.7693 -1.0590 -0.8266 -21.6296 6.9864 -0.4536 -41.1222 
-3.5260 104.6457 122.2031 10.1561 -3.4877 87.7982 2.9358 2.1244 4.7972 -2.5243 -2.5848 8.2974 -1.9173 -2.4242 7.9171 -4.5351 -1.6019 -24.0852 -6.7482 -11.7390 -31.3761 -27.0873 -52.7160 29.0597 61.0956 20.2763 -28.6039 16.8405 -27.3126 -32.3528 85.2494 -38.4307 90.7421 -1.2176 19.5182 2.0789 -2.4483 2.9180 3.9658 2.0064 -2.3010 27.1641 1.6703 -11.7731 -4.4039 -6.5031 -8.0279 -9.0467 8.8979 19.1293 19.9030 14.0022 5.1519 7.4937 -10.1098 -31.5323 -31.8393 10.5917 23.2419 30.8689 8.8335 5.8136 6.4197 5.7699 -50.1535 -52.4375 19.7535 -52.3762 -68.7324 3.8060 3.3863 5.2224 -1.3557 7.5972 18.1126 -1.1798 -6.5747 -5.4430 -20.8364 3.5095 0.1588 -21.7727 -21.6899 -51.7535 -5.4065 5.0630 -64.8278 -83.3375 34.1156 13.2542 -2.0272 -11.6720 -1.7908 -10.0559 -25.7931 10.3934 -20.4908 8.7453 -16.8912 19.6483 17.0534 8.3107 3.4607 16.6748 -11.0866 11.4880 8.2656 5.8141 -3.6071 -1.4231 51.1269 3.3159 1.3500 3.0558 2.0130 4.5387 -2.1098 -0.4801 -16.3016 23.2282 1.2315 -3.7605 10.4892 3.2349 6.0587 -1.3284 2.9283 25.0923 13.9546 -0.6500 -9.3086 23.1769 0.0185 -3.3508 9.8484 -6.4920 12.0149 -59.4310 12.5470 24.7697 48.4069 0.2988 5.4136 39.9014 -2.3817 0.1297 11.1085 6.1394 -50.1987 -109.2275 -7.4350 -18.5693 94.7236 1.4036 -0.4379 -22.9906 7.3606 0.0846 -43.3236 
-6.1801 103.5658 134.4350 15.7159 -3.3920 87.8276 1.6959 0.8940 4.8027 -3.9147 -4.0592 8.1286 -3.1807 -3.8832 7.7219 -3.3074 -2.2002 -23.4223 -4.7129 -15.4828 -32.4332 -28.4371 -53.2968 29.5451 58.3115 16.8745 -28.8936 8.1515 -25.9987 -22.4929 101.0111 -36.2144 79.0638 -1.2176 19.5182 2.0789 -2.4484 2.9176 3.9665 2.0064 -2.3010 27.1641 1.6703 -11.7731 -4.4039 -6.5031 -8.0279 -9.0468 8.8980 19.1294 19.9030 14.0017 5.1524 7.4934 -10.1098 -31.5323 -31.8393 10.5912 23.2406 30.8700 8.8335 5.8136 6.4197 5.7699 -50.1536 -52.4375 19.7535 -52.3762 -68.7325 3.8060 3.3863 5.2224 -1.3558 7.5971 18.1126 -1.1806 -6.5760 -5.4413 -24.3867 3.9991 -0.0426 -27.1575 -24.7062 -57.6024 -0.4773 -0.6422 -45.6289 -84.8183 33.7988 25.2680 -2.3646 -10.5178 -2.1567 -9.8460 -26.7597 10.6879 -17.0962 3.9981 -14.8859 16.9861 9.1954 8.0566 3.4484 17.2986 -11.5394 11.5591 10.6046 4.5555 -4.7909 -7.5919 53.1267 3.5715 2.4237 1.9040 1.8239 3.6857 -1.2749 -5.5107 -18.5317 25.1159 0.1893 -5.5655 12.9381 3.0372 5.1553 -0.3181 1.7698 22.5430 15.8983 -0.5238 -9.0609 22.8524 0.0659 -3.0707 9.4572 -2.9337 7.7304 -67.7274 19.4859 24.7565 64.9698 -3.6708 6.3289 36.7728 -0.9979 0.5913 11.2087 2.1162 -53.7660 -100.8351 -13.8663 -17.2656 92.4438 1.4679 -1.0810 -18.1485 8.1519 1.5860 -48.8869 
-9.0903 101.5549 146.7883 20.5200 -3.3196 87.9510 0.1141 -0.5641 4.9200 -5.1920 -5.6073 8.2952 -4.3412 -5.4307 7.8852 -1.5298 -2.5455 -22.4528 -1.7654 -17.5394 -34.2852 -27.3231 -51.1904 28.9122 56.8995 13.2430 -28.8518 3.7761 -27.1483 -13.6920 104.1008 -30.8404 75.8546 -2.1790 19.6893 2.5740 -0.6950 6.9242 5.1633 1.6345 -3.4009 26.5178 1.5801 -7.1704 -1.1377 -6.1215 -4.2180 -6.4656 8.0216 15.0187 16.7522 14.2499 5.5629 7.8545 -11.9934 -20.7306 -19.1986 10.4011 23.0837 30.5723 10.7686 9.1247 10.1870 13.1487 -54.7960 -65.6178 12.3985 -48.7413 -57.0831 5.6957 6.5494 8.4474 -0.3657 9.4193 20.1513 -1.0814 -4.9293 -3.9657 -27.2113 7.5266 -2.0569 -36.8757 -30.1562 -60.3904 7.0264 -7.3159 -24.8482 -86.8468 32.8100 38.4693 -2.6845 -9.4446 -2.5027 -9.5435 -27.2551 10.6956 -13.5841 -0.0721 -13.8679 14.1280 1.4573 8.4105 3.4077 18.2857 -12.2851 11.5644 13.4984 3.0319 -6.0164 -13.9837 54.4442 4.1408 4.6823 -0.5327 1.7693 3.4123 -1.0452 -10.0609 -19.8419 26.4734 -0.9685 -7.4337 15.5315 2.9708 4.8255 0.0408 0.2260 20.2802 16.9440 -0.1828 -8.5232 22.0981 0.4368 -1.6579 7.8090 -0.5400 7.7012 -76.7837 24.3705 23.0595 80.4991 -5.3578 4.7067 28.1979 0.5346 0.8275 6.7178 -1.3470 -55.9534 -92.9156 -19.9163 -16.5762 89.0520 -1.2319 -2.0720 -10.1858 9.5526 4.3590 -56.2872 
-12.2230 99.3729 159.2200 24.9145 -3.2865 88.1406 -1.7597 -2.2161 5.1280 -6.4314 -7.2183 8.7008 -5.4712 -7.0525 8.3051 0.5475 -2.7482 -21.2877 1.7359 -18.3455 -36.5063 -23.2792 -46.2269 26.8317 56.0746 9.7156 -27.5032 2.4426 -31.6910 -9.3940 96.8969 -26.1243 72.3034 -3.8436 20.0263 3.4350 2.5250 13.7888 7.7086 0.2780 -8.4841 23.3345 2.5018 1.8521 5.2980 -5.0517 2.3849 -1.9038 7.1412 7.8039 11.4370 15.1887 7.1192 9.7435 -10.0487 -1.6434 1.0182 9.2809 22.0458 28.7430 16.0049 15.8658 19.4046 27.0098 -58.9919 -87.2952 1.9638 -38.3729 -36.8910 10.5497 13.0956 16.4256 1.5344 12.5130 23.8189 -0.8066 -2.0596 -1.3893 -28.7215 13.0273 -4.7248 -40.9152 -30.6697 -58.9506 4.1809 -12.5488 -14.1804 -83.0894 33.9576 48.7832 -2.9727 -8.4938 -2.8141 -8.6715 -27.1567 10.0090 -10.6037 -3.1840 -13.7083 10.5309 -3.1262 6.9145 3.0647 21.9199 -15.1608 11.3649 23.5195 -2.3313 -8.0687 -17.5136 50.6972 4.9251 7.3733 -3.4354 2.4186 6.4567 -4.2047 -13.8200 -19.6582 25.4609 1.3210 -3.9313 10.0884 3.7710 9.0888 -4.8221 -3.0069 15.0341 16.2367 1.3846 -6.0412 18.6869 2.0622 9.1550 -3.9041 -1.8236 11.8661 -85.7748 23.5950 21.5197 91.8987 -1.7773 1.1200 14.0417 2.1984 1.2354 -2.6828 -4.1285 -57.2712 -84.9444 -22.0908 -16.9540 83.9396 -4.7546 -2.4917 -2.0291 11.8465 8.7442 -62.1105 
-15.1805 97.7449 171.5130 29.0947 -3.2922 88.3511 -3.7612 -3.9411 5.3838 -7.6553 -8.8182 9.2082 -6.5949 -8.6688 8.8319 2.5057 -2.8875 -20.1810 5.0600 -18.3534 -38.3462 -16.6019 -38.7416 23.5606 54.8536 7.5455 -22.7958 5.4560 -39.2063 -15.6154 82.3423 -26.1028 59.2702 -5.3777 20.4032 4.2427 5.7271 19.5876 10.9998 -1.5142 -20.7668 15.4825 5.1535 11.5591 12.8003 -3.5912 8.3844 2.4724 7.1044 1.2363 6.5165 16.9332 9.7412 13.3099 -3.3909 14.9728 20.6665 6.4603 18.9773 23.8832 25.3215 23.2452 34.0298 29.4414 -59.4645 -91.7425 -3.5017 -21.8286 -16.6566 18.4353 20.2292 28.2293 3.5215 15.2996 27.3959 -0.4048 0.8042 1.2063 -27.9914 18.9030 -6.1871 -27.7927 -21.0510 -52.8361 -20.0468 -11.4895 -25.5277 -66.3461 39.3075 53.6784 -3.2102 -7.7201 -3.0712 -5.7328 -25.6574 9.0358 -8.9805 -4.8286 -14.3236 5.4145 -2.3203 0.3193 1.1840 30.8996 -22.9403 5.1285 48.1138 -19.5753 -11.8704 -16.2687 36.5758 6.0138 9.9072 -6.1680 3.3554 16.4378 -14.2643 -16.3356 -17.1817 19.7157 7.1368 13.2904 -11.7205 3.7673 23.1340 -20.9488 -9.0184 2.8159 13.3579 4.7709 0.7845 10.1746 -6.9224 38.3295 -41.3364 -7.9011 17.7292 -95.3201 16.6473 22.0278 98.9265 7.3009 -0.5069 -4.1492 3.7922 2.2901 -16.0647 -7.0803 -58.3962 -76.0572 -18.4290 -17.8909 77.8963 -4.8389 -2.3955 2.6043 14.2866 12.1423 -58.9820 
-17.6770 96.3708 183.5027 32.3733 -3.3038 88.4888 -5.5836 -5.4661 5.6527 -8.6392 -10.1229 9.7070 -7.5308 -9.9975 9.3361 3.5853 -2.8778 -19.6703 6.8875 -18.0268 -38.3005 -6.6858 -29.4495 18.4371 54.2927 12.1128 -14.1632 27.7221 -43.6463 -42.0995 57.6976 -31.6469 36.1884 -5.3042 20.3701 4.2475 5.0200 11.8821 14.5765 1.9022 -35.2699 1.4092 -0.3711 1.1235 4.0568 -3.7276 8.0486 2.8435 7.5189 4.0351 8.0267 12.3995 1.0307 -1.2330 -3.1122 14.6364 20.9254 1.7435 11.4844 14.2409 23.0808 21.7137 31.8314 -0.7596 -43.8007 -41.9733 -3.7933 -20.8269 -15.5632 11.3369 10.7871 10.9569 3.5177 15.3028 27.3945 0.1102 3.7737 3.9624 -25.9226 22.6313 -6.0370 -16.8846 -17.6821 -49.1641 -28.6135 -7.5939 -35.4520 -58.7456 41.3293 57.0828 -3.3502 -7.2691 -3.2225 -0.9675 -23.2147 9.8858 -8.2845 -5.5262 -15.0837 0.7017 -0.6732 -8.0817 -2.9545 40.3627 -32.9951 -31.6019 69.4640 -66.3936 -13.9885 -15.1967 18.4268 6.9812 11.3704 -7.5908 2.1846 27.9822 -26.2282 -17.8164 -14.8107 12.5292 5.1645 34.8737 -38.6559 -2.0561 38.5070 -42.2924 -15.5146 -9.8023 10.5954 7.3294 8.8105 1.1482 -51.9363 51.2794 -111.9158 -15.5402 17.9631 -106.6075 8.5390 23.2046 103.1488 11.6838 1.2940 -12.1709 4.7328 3.6655 -24.0929 -10.1540 -59.6353 -69.9572 -10.6875 -17.4998 75.6798 -3.8835 -2.3562 7.3363 20.3702 15.2450 -42.4478 
-18.8575 94.9887 195.2323 33.8212 -3.3753 88.4088 -6.8795 -6.4991 5.9305 -8.9666 -10.6943 10.0706 -7.9335 -10.6044 9.6615 4.0247 -2.5827 -19.6256 7.6634 -17.2610 -36.6130 -0.1652 -23.8365 14.8497 52.7331 16.4537 -12.6567 35.9735 -37.7221 -64.7902 53.4900 -34.6026 33.2473 -4.8539 20.1695 4.2755 -8.9417 -14.4110 29.0161 13.9081 -42.2296 -16.7753 -3.1818 -36.7402 -19.8474 -5.3705 -15.2625 -12.0500 2.4356 -7.2528 -4.1405 9.9266 -24.1578 -33.8594 -10.7910 -9.5023 -4.1306 -3.4129 -5.8728 -3.4486 8.3107 5.0586 8.2625 -4.5104 -38.5534 -35.3435 -4.0743 -22.5464 -17.2119 4.7612 -12.2570 -21.1598 1.6942 12.7297 24.0884 -1.3744 -18.1456 -15.9258 -25.5025 23.3734 -5.9890 -9.1145 -12.1491 -45.4664 -32.7902 -5.4685 -41.4570 -62.0619 40.4958 58.1483 -3.3937 -7.1299 -3.2694 0.6621 -22.4170 10.2460 -8.0871 -5.7216 -15.3457 -0.8784 -0.2599 -11.0462 -5.0229 43.4380 -36.9835 -59.6874 70.8762 -97.7498 -14.3720 -14.7581 11.6640 7.2607 11.4302 -7.6088 1.1373 31.8069 -30.6042 -18.5224 -14.2321 10.0722 1.4626 41.6059 -49.5756 -6.0101 43.1336 -51.0433 -17.7170 -14.0738 9.8765 7.9190 11.6380 -1.9067 -67.9406 45.9972 -136.6002 -21.3305 12.9406 -117.7542 5.3000 22.5388 106.6995 7.8710 1.3187 -12.1345 5.3650 4.6061 -25.7890 -13.0563 -60.6869 -64.0263 -9.0239 -17.0790 73.6108 -1.8600 -2.8342 11.0343 16.4830 10.5746 -27.5179 
-18.6895 94.0883 206.5124 33.4507 -3.5826 88.0513 -7.7225 -7.1742 6.2382 -8.6183 -10.5267 10.3255 -7.7861 -10.4831 9.8417 4.0211 -2.3711 -19.8031 7.7290 -15.6289 -34.5891 4.7645 -20.0631 11.8235 49.7243 19.5757 -15.6087 37.2937 -31.9907 -80.8001 57.9777 -34.0582 42.4876 -4.0752 19.8284 4.3179 -24.6883 -28.7524 43.4624 28.4982 -36.0902 -28.7469 11.9735 -60.2834 -47.9157 -1.9405 -31.2543 -23.6923 -0.4105 -17.4985 -13.3872 16.8639 -39.5244 -58.1230 -9.2567 -27.1059 -22.7504 -3.7869 -18.6430 -15.5271 2.0055 -11.8063 -7.2143 -7.0541 -32.8105 -29.4724 -4.4444 -21.5161 -16.1575 6.9845 -29.1543 -40.4586 0.1762 10.2723 21.1430 3.3877 -34.2836 -33.2499 -25.5025 23.3734 -5.9891 -3.7454 -7.2834 -42.1654 -35.6999 -2.7859 -44.8970 -68.1251 38.8069 58.5077 -3.4026 -7.1017 -3.2789 1.0529 -22.2358 10.3427 -8.0542 -5.7543 -15.4081 -1.2309 -0.1697 -11.7747 -5.5744 44.1542 -37.9858 -66.4510 70.4473 -105.2818 -14.3380 -14.5827 9.8691 7.3119 11.2964 -7.4589 0.8409 32.6941 -31.6548 -18.7383 -14.1618 9.4866 0.3234 43.0842 -52.3232 -7.1161 44.1561 -53.2499 -18.2597 -15.0597 9.6993 8.0377 12.3164 -2.6353 -70.9585 44.1487 -141.7429 -23.5668 8.5307 -123.1983 3.9967 21.3232 108.1484 1.5345 0.6391 -11.3429 -3.0356 0.8615 -28.2307 -14.1745 -60.8013 -60.0868 -6.6854 -15.8785 69.6388 -1.7706 -3.3011 16.3518 9.7254 7.0830 -13.3241 
-17.5251 94.1834 217.1829 31.6307 -3.8937 87.4154 -8.1630 -7.6071 6.5726 -7.7853 -9.7754 10.5314 -7.2451 -9.7827 9.9558 3.6658 -2.4601 -20.0812 7.2499 -12.8608 -32.9693 8.1751 -17.7809 9.2884 46.3459 21.7704 -20.1990 39.5697 -27.4640 -90.2259 63.6178 -33.6108 58.5445 -3.0099 19.3710 4.3651 -24.3472 -28.9640 42.0771 40.2309 -18.5412 -24.7423 12.2991 -58.6490 -49.0803 -1.8555 -28.1900 -20.6568 -1.7631 -18.7135 -14.2643 14.6755 -38.3460 -54.7449 -8.3763 -23.4083 -21.0966 -3.6966 -19.9315 -16.7001 0.9690 -15.9382 -10.2101 -8.2683 -19.2010 -15.7934 -4.5928 -15.7769 -10.6210 4.1456 -32.2239 -34.0988 -0.3141 9.3670 20.1051 3.0258 -33.1894 -32.2299 -25.5025 23.3734 -5.9891 -0.6400 -3.7192 -39.8670 -37.6175 0.9559 -46.0642 -74.6398 36.8119 58.5671 -3.4026 -7.1018 -3.2789 1.0528 -22.2359 10.3427 -8.0542 -5.7543 -15.4082 -1.2309 -0.1697 -11.7747 -5.5744 44.1542 -37.9858 -66.4509 70.4474 -105.2817 -14.3380 -14.5826 9.8691 7.3119 11.2964 -7.4590 0.8408 32.6941 -31.6548 -18.7383 -14.1618 9.4866 0.3233 43.0842 -52.3232 -7.1161 44.1561 -53.2500 -18.2597 -15.0597 9.6993 8.0377 12.3164 -2.6353 -70.9585 44.1487 -141.7429 -23.2723 7.9960 -121.2937 4.8443 19.9249 108.2837 -5.0629 -0.6950 -16.3796 -3.9805 0.1740 -30.1915 -14.4506 -60.0251 -58.5182 -4.3175 -13.9966 66.4794 -2.8349 -3.5638 22.2429 8.5371 5.7788 -3.3993 
-16.0266 95.6567 227.1353 29.0060 -4.3413 86.5599 -8.3996 -7.9108 6.9129 -6.8071 -8.7228 10.7614 -6.5868 -8.7760 10.1103 3.0193 -2.9808 -20.3846 6.3144 -8.8167 -32.2250 9.6009 -17.3702 7.2928 44.5451 24.5192 -23.2847 46.7152 -21.5988 -91.1035 63.4564 -33.9552 75.8351 -1.7147 18.8293 4.4062 -6.2281 -16.9037 26.1350 55.7987 3.9288 -3.2413 -2.2234 -33.3562 -25.3091 -2.7487 -5.0212 -2.2373 -1.4865 -8.7133 -6.6149 7.0371 -19.4068 -28.1325 -4.0838 1.7946 3.0690 -3.8005 -8.8627 -6.0729 2.7685 -4.4316 -1.1630 -2.3566 2.1131 6.5417 -3.2439 -5.7658 -1.1118 -3.3226 -19.2199 -4.7869 0.4014 10.5305 21.4564 -1.3224 -12.5919 -11.7321 -25.5025 23.3734 -5.9890 0.2392 -1.0037 -38.9368 -37.1265 5.5354 -44.5206 -82.2481 34.4500 58.1065 -3.4026 -7.1017 -3.2790 1.0529 -22.2359 10.3427 -8.0542 -5.7543 -15.4081 -1.2309 -0.1697 -11.7747 -5.5744 44.1542 -37.9859 -66.4509 70.4473 -105.2818 -14.3380 -14.5827 9.8691 7.3119 11.2964 -7.4589 0.8408 32.6941 -31.6548 -18.7383 -14.1618 9.4866 0.3233 43.0841 -52.3233 -7.1161 44.1561 -53.2500 -18.2597 -15.0597 9.6993 8.0377 12.3164 -2.6353 -70.9584 44.1487 -141.7428 -21.8456 10.4169 -112.5427 5.8342 19.1273 104.7234 -6.9953 -1.7720 -23.0256 -2.4135 0.0929 -33.7683 -15.8380 -58.5640 -59.3521 -2.2406 -12.0277 67.5613 -3.2430 -3.8125 26.7219 8.7548 4.6119 7.0635 
-13.9826 97.7227 236.4621 24.8718 -4.6728 85.9497 -8.1748 -7.7927 7.1383 -5.5603 -7.2889 10.9261 -5.6648 -7.3707 10.2589 2.0585 -3.7993 -20.7810 4.8529 -3.6692 -32.0647 10.3597 -17.5543 5.4528 43.4453 26.8021 -27.7906 47.2078 -19.3182 -88.4758 63.6489 -32.4376 85.1705 -0.2267 18.2368 4.4301 1.2928 -6.3443 18.1483 64.4920 10.1186 10.6916 -2.1942 -16.8588 -16.0065 -1.3600 3.4602 4.4053 -0.8268 -3.2988 -2.4626 6.8680 -7.2073 -13.7943 1.7269 12.5321 16.4890 -2.9560 -3.2879 -0.7548 4.8859 2.4708 5.0425 2.0734 9.1789 15.6684 -1.8668 -0.6781 4.0300 -6.1201 -9.2153 9.1697 0.5152 10.7186 21.6770 -0.5373 -1.8886 -2.0470 -25.5025 23.3734 -5.9890 -1.1669 0.8264 -39.8265 -34.4075 10.1174 -40.6821 -89.8026 32.2315 57.1431 -3.4026 -7.1017 -3.2789 1.0528 -22.2359 10.3427 -8.0542 -5.7543 -15.4081 -1.2308 -0.1697 -11.7747 -5.5744 44.1542 -37.9858 -66.4509 70.4473 -105.2818 -14.3380 -14.5826 9.8691 7.3119 11.2964 -7.4589 0.8408 32.6941 -31.6548 -18.7383 -14.1618 9.4866 0.3233 43.0842 -52.3232 -7.1161 44.1561 -53.2500 -18.2597 -15.0597 9.6993 8.0377 12.3164 -2.6353 -70.9584 44.1487 -141.7428 -20.2431 12.9013 -104.5344 9.2826 18.1809 100.6515 -9.7849 -3.3228 -29.0540 1.5144 1.7050 -35.3683 -15.5356 -55.7884 -61.6636 -0.6819 -11.3216 68.5921 -1.3271 -4.2857 23.6852 8.7873 3.9970 10.1170 
-11.5433 99.8769 245.1424 19.4628 -4.7226 85.7279 -7.5018 -7.2580 7.2061 -4.0760 -5.5337 11.0015 -4.4817 -5.6269 10.3915 0.9654 -4.7647 -21.2194 3.1134 1.9765 -32.3293 10.8755 -17.9405 3.6622 43.3067 28.6949 -34.1364 39.8248 -20.7013 -82.9012 67.2786 -32.8228 83.6017 1.3203 17.6482 4.4320 5.0157 0.3130 13.8965 67.9556 10.9242 14.3816 -0.8495 -7.7004 -10.6214 -1.0502 5.3030 5.9420 -0.5007 -1.1128 -0.7933 7.9343 -0.5823 -5.8311 3.2179 14.4511 20.0680 -2.4216 -1.6069 0.8998 6.3418 6.2967 8.9623 3.3904 10.7851 17.7113 -1.2404 1.1289 6.0125 -5.8981 -3.8174 14.3610 0.1896 10.2169 21.0824 0.1246 1.5433 1.2781 -25.5026 23.3734 -5.9891 -3.6713 2.1100 -41.7418 -30.0844 13.9449 -35.4623 -97.2384 30.1119 55.3488 -3.4026 -7.1017 -3.2789 1.0528 -22.2359 10.3427 -8.0542 -5.7543 -15.4081 -1.2309 -0.1697 -11.7747 -5.5744 44.1542 -37.9858 -66.4510 70.4473 -105.2819 -14.3380 -14.5826 9.8691 7.3119 11.2964 -7.4590 0.8408 32.6941 -31.6548 -18.7383 -14.1618 9.4866 0.3233 43.0842 -52.3232 -7.1161 44.1561 -53.2500 -18.2597 -15.0597 9.6993 8.0377 12.3164 -2.6353 -70.9585 44.1487 -141.7429 -18.1319 15.7864 -98.4284 11.6003 17.8281 96.6906 -12.3444 -4.4394 -31.8308 2.0105 1.7439 -35.6577 -14.2826 -51.9255 -65.5070 0.4793 -11.2634 70.5997 1.6041 -4.4130 17.7185 8.7720 3.4857 11.0290 
-8.4456 101.9758 253.0483 12.0973 -4.1152 86.1780 -5.8884 -5.8667 6.9246 -2.0744 -3.0616 10.8616 -2.7231 -3.1458 10.4564 -0.1795 -5.8083 -21.6750 1.1872 7.8434 -32.9542 11.3538 -18.3505 1.8738 43.4447 30.4223 -42.2854 26.9989 -21.7849 -74.2699 72.8535 -33.6208 75.9575 2.8595 17.0883 4.4125 7.3300 4.8074 11.1808 68.1317 9.7905 11.9993 0.4088 -2.1812 -6.8625 -1.2324 5.2763 5.9829 -0.4464 -0.5477 -0.3840 8.8955 3.2434 -0.9053 2.0579 13.0019 18.9219 -2.2204 -1.8702 0.6637 7.3525 8.7306 11.7712 3.2120 10.6530 16.9396 -1.1896 1.1895 6.2106 -4.6748 -0.9860 15.3908 -0.3521 9.3489 20.0739 0.1005 1.2827 1.2522 -25.5025 23.3734 -5.9891 -6.7671 2.2695 -43.6172 -25.6363 16.9662 -29.9336 -103.6653 28.3277 52.9037 -3.4025 -7.1017 -3.2790 1.0528 -22.2359 10.3427 -8.0542 -5.7543 -15.4082 -1.2308 -0.1697 -11.7747 -5.5744 44.1542 -37.9858 -66.4510 70.4473 -105.2819 -14.3380 -14.5826 9.8691 7.3119 11.2964 -7.4590 0.8408 32.6941 -31.6548 -18.7383 -14.1618 9.4866 0.3233 43.0842 -52.3233 -7.1161 44.1561 -53.2499 -18.2596 -15.0597 9.6993 8.0377 12.3164 -2.6353 -70.9584 44.1487 -141.7428 -14.9127 19.4177 -93.8228 15.1054 17.7494 93.5917 -15.3087 -5.5563 -33.4395 1.3024 1.1247 -35.5190 -11.1950 -46.5799 -71.1298 1.4099 -11.5456 72.7065 4.8817 -3.8634 10.7609 8.7497 3.0314 10.7370 
-4.8499 103.8020 260.4550 3.1499 -2.7859 87.0200 -3.5627 -3.7763 6.3904 0.3303 0.0109 10.5786 -0.4963 -0.0636 10.4950 -1.3080 -6.8675 -22.1277 -0.8406 13.6883 -33.8658 11.9737 -18.6194 0.0498 43.2118 32.1945 -51.7044 11.0561 -19.0640 -63.9528 79.7751 -33.5255 64.4110 4.3291 16.5785 4.3754 9.1480 8.5879 9.0298 67.1587 7.9735 7.2668 1.6270 2.0733 -3.5975 -1.4142 5.2426 6.0309 -0.4915 -0.5538 -0.4102 9.7895 6.0938 2.9829 0.2083 10.4995 16.3686 -2.1445 -2.8109 -0.2489 8.2477 10.7244 14.2510 2.4179 9.8122 15.0235 -1.3729 0.5800 5.7052 -3.0567 0.9234 14.9966 -0.9550 8.3375 18.9269 -0.1858 -0.3057 -0.0053 -25.5025 23.3734 -5.9891 -10.2560 1.8208 -45.6594 -19.9532 18.5883 -22.9982 -110.1513 26.1104 49.0443 -3.4026 -7.1017 -3.2789 1.0528 -22.2358 10.3427 -8.0542 -5.7543 -15.4081 -1.2309 -0.1697 -11.7747 -5.5743 44.1542 -37.9858 -66.4510 70.4473 -105.2818 -14.3380 -14.5826 9.8691 7.3119 11.2964 -7.4589 0.8409 32.6941 -31.6548 -18.7383 -14.1618 9.4866 0.3233 43.0842 -52.3232 -7.1161 44.1561 -53.2500 -18.2597 -15.0597 9.6993 8.0377 12.3164 -2.6353 -70.9585 44.1487 -141.7429 -10.4710 23.6240 -89.7161 20.3264 18.0030 91.2719 -19.0092 -6.9010 -34.4768 0.4953 0.4249 -35.3512 -7.3753 -39.7566 -77.0865 2.0629 -11.9593 74.3719 8.2194 -2.6481 4.1513 8.7343 2.5951 10.0488 
-1.2487 105.1347 267.8810 -6.1403 -1.0771 87.6344 -1.3017 -1.6563 5.8547 2.7067 3.1062 10.3132 1.7353 3.0163 10.5446 -2.3539 -7.8766 -22.5598 -2.8566 19.2734 -34.9521 12.9074 -18.5768 -1.8412 41.9220 34.1555 -61.3678 -5.0901 -10.3981 -55.3643 87.4254 -31.3873 49.8223 5.6663 16.1372 4.3267 10.1373 12.3369 7.7016 66.5909 6.3624 3.3676 3.3274 6.5915 0.0352 -1.5912 5.2002 6.0893 -0.5089 -0.3720 -0.2757 10.9946 9.1827 7.3313 -1.3341 8.0420 13.9210 -2.0443 -3.5104 -0.9334 9.3183 12.8073 16.9200 0.9221 7.6515 11.5155 -1.4777 0.2104 5.4317 -1.5026 3.1080 15.2141 -1.5105 7.3602 17.8448 -0.3586 -1.4238 -0.8580 -25.5025 23.3734 -5.9891 -14.2653 2.0601 -49.2816 -10.0140 16.5265 -11.9282 -118.8861 21.3587 42.9153 -3.4026 -7.1018 -3.2789 1.0529 -22.2358 10.3427 -8.0542 -5.7543 -15.4081 -1.2309 -0.1697 -11.7747 -5.5744 44.1542 -37.9858 -66.4509 70.4474 -105.2817 -14.3380 -14.5826 9.8691 7.3119 11.2964 -7.4590 0.8408 32.6941 -31.6548 -18.7383 -14.1618 9.4866 0.3233 43.0841 -52.3232 -7.1161 44.1561 -53.2500 -18.2597 -15.0597 9.6993 8.0377 12.3164 -2.6353 -70.9585 44.1487 -141.7429 -5.0299 27.7729 -84.6965 26.1260 18.8057 89.0550 -23.4877 -8.3173 -34.4611 -0.0000 -0.0000 -35.2428 -4.3775 -32.2107 -81.6458 2.2277 -12.3683 75.3078 11.7230 -0.9945 -1.1725 8.7214 2.1399 9.7723 
